[{"OBJECT_NAME":"STARLINK-35133","OBJECT_ID":"2025-200R","EPOCH":"2026-03-09T18:10:28.645536","MEAN_MOTION":15.05660939,"ECCENTRICITY":2.492e-5,"INCLINATION":97.6015,"RA_OF_ASC_NODE":139.905,"ARG_OF_PERICENTER":127.2074,"MEAN_ANOMALY":232.9175,"EPHEMERIS_TYPE":0,"CLASSIFICATION_TYPE":"U","NORAD_CAT_ID":65535,"ELEMENT_SET_NO":999,"REV_AT_EPOCH":2914,"BSTAR":0.00021803738,"MEAN_MOTION_DOT":3.088e-5,"MEAN_MOTION_DDOT":0},{"OBJECT_NAME":"MINOTAUR 4 DEB","OBJECT_ID":"2020-046AB","EPOCH":"2026-03-09T21:53:22.840224","MEAN_MOTION":15.04149387,"ECCENTRICITY":0.00103054,"INCLINATION":53.9803,"RA_OF_ASC_NODE":316.6393,"ARG_OF_PERICENTER":80.1776,"MEAN_ANOMALY":280.0387,"EPHEMERIS_TYPE":0,"CLASSIFICATION_TYPE":"U","NORAD_CAT_ID":52037,"ELEMENT_SET_NO":999,"REV_AT_EPOCH":22693,"BSTAR":0.00012711185,"MEAN_MOTION_DOT":1.507e-5,"MEAN_MOTION_DDOT":0}]
